<?xml version="1.0" encoding="UTF-8"?>
<ndm xmlns:xsi="http://www.w3.org/2001/XMLSchema-instance" xsi:noNamespaceSchemaLocation="https://sanaregistry.org/r/ndmxml_unqualified/ndmxml-2.0.0-master-2.0.xsd">
<omm id="CCSDS_OMM_VERS" version="2.0">
<header><CREATION_DATE/><ORIGINATOR/></header><body><segment><metadata><OBJECT_NAME>ORBCOMM FM20</OBJECT_NAME><OBJECT_ID>1998-046D</OBJECT_ID><CENTER_NAME>EARTH</CENTER_NAME><REF_FRAME>TEME</REF_FRAME><TIME_SYSTEM>UTC</TIME_SYSTEM><MEAN_ELEMENT_THEORY>SGP4</MEAN_ELEMENT_THEORY></metadata><data><meanElements><EPOCH>2024-12-30T02:25:59.731392</EPOCH><MEAN_MOTION>14.36525351</MEAN_MOTION><ECCENTRICITY>.0000727</ECCENTRICITY><INCLINATION>44.9935</INCLINATION><RA_OF_ASC_NODE>261.6463</RA_OF_ASC_NODE><ARG_OF_PERICENTER>39.0539</ARG_OF_PERICENTER><MEAN_ANOMALY>321.0361</MEAN_ANOMALY></meanElements><tleParameters><EPHEMERIS_TYPE>0</EPHEMERIS_TYPE><CLASSIFICATION_TYPE>U</CLASSIFICATION_TYPE><NORAD_CAT_ID>25416</NORAD_CAT_ID><ELEMENT_SET_NO>999</ELEMENT_SET_NO><REV_AT_EPOCH>37998</REV_AT_EPOCH><BSTAR>.10681E-2</BSTAR><MEAN_MOTION_DOT>.3024E-4</MEAN_MOTION_DOT><MEAN_MOTION_DDOT>0</MEAN_MOTION_DDOT></tleParameters></data></segment></body></omm>
<omm id="CCSDS_OMM_VERS" version="2.0">
<header><CREATION_DATE/><ORIGINATOR/></header><body><segment><metadata><OBJECT_NAME>ORBCOMM FM16</OBJECT_NAME><OBJECT_ID>1998-046E</OBJECT_ID><CENTER_NAME>EARTH</CENTER_NAME><REF_FRAME>TEME</REF_FRAME><TIME_SYSTEM>UTC</TIME_SYSTEM><MEAN_ELEMENT_THEORY>SGP4</MEAN_ELEMENT_THEORY></metadata><data><meanElements><EPOCH>2024-12-29T22:28:38.955936</EPOCH><MEAN_MOTION>14.37950351</MEAN_MOTION><ECCENTRICITY>.000353</ECCENTRICITY><INCLINATION>44.9929</INCLINATION><RA_OF_ASC_NODE>256.0649</RA_OF_ASC_NODE><ARG_OF_PERICENTER>152.7364</ARG_OF_PERICENTER><MEAN_ANOMALY>207.3670</MEAN_ANOMALY></meanElements><tleParameters><EPHEMERIS_TYPE>0</EPHEMERIS_TYPE><CLASSIFICATION_TYPE>U</CLASSIFICATION_TYPE><NORAD_CAT_ID>25417</NORAD_CAT_ID><ELEMENT_SET_NO>999</ELEMENT_SET_NO><REV_AT_EPOCH>37988</REV_AT_EPOCH><BSTAR>.12815E-2</BSTAR><MEAN_MOTION_DOT>.3768E-4</MEAN_MOTION_DOT><MEAN_MOTION_DDOT>0</MEAN_MOTION_DDOT></tleParameters></data></segment></body></omm>
<omm id="CCSDS_OMM_VERS" version="2.0">
<header><CREATION_DATE/><ORIGINATOR/></header><body><segment><metadata><OBJECT_NAME>ORBCOMM FM15</OBJECT_NAME><OBJECT_ID>1998-046F</OBJECT_ID><CENTER_NAME>EARTH</CENTER_NAME><REF_FRAME>TEME</REF_FRAME><TIME_SYSTEM>UTC</TIME_SYSTEM><MEAN_ELEMENT_THEORY>SGP4</MEAN_ELEMENT_THEORY></metadata><data><meanElements><EPOCH>2024-12-30T03:37:12.413568</EPOCH><MEAN_MOTION>14.37635870</MEAN_MOTION><ECCENTRICITY>.0003052</ECCENTRICITY><INCLINATION>44.9963</INCLINATION><RA_OF_ASC_NODE>259.7109</RA_OF_ASC_NODE><ARG_OF_PERICENTER>155.4092</ARG_OF_PERICENTER><MEAN_ANOMALY>204.6901</MEAN_ANOMALY></meanElements><tleParameters><EPHEMERIS_TYPE>0</EPHEMERIS_TYPE><CLASSIFICATION_TYPE>U</CLASSIFICATION_TYPE><NORAD_CAT_ID>25418</NORAD_CAT_ID><ELEMENT_SET_NO>999</ELEMENT_SET_NO><REV_AT_EPOCH>38008</REV_AT_EPOCH><BSTAR>.13286E-2</BSTAR><MEAN_MOTION_DOT>.3886E-4</MEAN_MOTION_DOT><MEAN_MOTION_DDOT>0</MEAN_MOTION_DDOT></tleParameters></data></segment></body></omm>
<omm id="CCSDS_OMM_VERS" version="2.0">
<header><CREATION_DATE/><ORIGINATOR/></header><body><segment><metadata><OBJECT_NAME>ORBCOMM FM14</OBJECT_NAME><OBJECT_ID>1998-046G</OBJECT_ID><CENTER_NAME>EARTH</CENTER_NAME><REF_FRAME>TEME</REF_FRAME><TIME_SYSTEM>UTC</TIME_SYSTEM><MEAN_ELEMENT_THEORY>SGP4</MEAN_ELEMENT_THEORY></metadata><data><meanElements><EPOCH>2024-12-30T01:38:57.341472</EPOCH><MEAN_MOTION>14.37928232</MEAN_MOTION><ECCENTRICITY>.0002166</ECCENTRICITY><INCLINATION>44.9950</INCLINATION><RA_OF_ASC_NODE>258.7841</RA_OF_ASC_NODE><ARG_OF_PERICENTER>136.7943</ARG_OF_PERICENTER><MEAN_ANOMALY>223.3076</MEAN_ANOMALY></meanElements><tleParameters><EPHEMERIS_TYPE>0</EPHEMERIS_TYPE><CLASSIFICATION_TYPE>U</CLASSIFICATION_TYPE><NORAD_CAT_ID>25419</NORAD_CAT_ID><ELEMENT_SET_NO>999</ELEMENT_SET_NO><REV_AT_EPOCH>38008</REV_AT_EPOCH><BSTAR>.12388E-2</BSTAR><MEAN_MOTION_DOT>.3636E-4</MEAN_MOTION_DOT><MEAN_MOTION_DDOT>0</MEAN_MOTION_DDOT></tleParameters></data></segment></body></omm>
<omm id="CCSDS_OMM_VERS" version="2.0">
<header><CREATION_DATE/><ORIGINATOR/></header><body><segment><metadata><OBJECT_NAME>ORBCOMM FM13</OBJECT_NAME><OBJECT_ID>1998-046H</OBJECT_ID><CENTER_NAME>EARTH</CENTER_NAME><REF_FRAME>TEME</REF_FRAME><TIME_SYSTEM>UTC</TIME_SYSTEM><MEAN_ELEMENT_THEORY>SGP4</MEAN_ELEMENT_THEORY></metadata><data><meanElements><EPOCH>2024-12-30T02:46:33.055104</EPOCH><MEAN_MOTION>14.36880477</MEAN_MOTION><ECCENTRICITY>.000408</ECCENTRICITY><INCLINATION>44.9968</INCLINATION><RA_OF_ASC_NODE>265.0068</RA_OF_ASC_NODE><ARG_OF_PERICENTER>137.6407</ARG_OF_PERICENTER><MEAN_ANOMALY>222.4757</MEAN_ANOMALY></meanElements><tleParameters><EPHEMERIS_TYPE>0</EPHEMERIS_TYPE><CLASSIFICATION_TYPE>U</CLASSIFICATION_TYPE><NORAD_CAT_ID>25420</NORAD_CAT_ID><ELEMENT_SET_NO>999</ELEMENT_SET_NO><REV_AT_EPOCH>38004</REV_AT_EPOCH><BSTAR>.1194E-2</BSTAR><MEAN_MOTION_DOT>.3423E-4</MEAN_MOTION_DOT><MEAN_MOTION_DDOT>0</MEAN_MOTION_DDOT></tleParameters></data></segment></body></omm>
<omm id="CCSDS_OMM_VERS" version="2.0">
<header><CREATION_DATE/><ORIGINATOR/></header><body><segment><metadata><OBJECT_NAME>ORBCOMM FM21</OBJECT_NAME><OBJECT_ID>1998-053A</OBJECT_ID><CENTER_NAME>EARTH</CENTER_NAME><REF_FRAME>TEME</REF_FRAME><TIME_SYSTEM>UTC</TIME_SYSTEM><MEAN_ELEMENT_THEORY>SGP4</MEAN_ELEMENT_THEORY></metadata><data><meanElements><EPOCH>2024-12-29T16:07:25.267872</EPOCH><MEAN_MOTION>14.36660250</MEAN_MOTION><ECCENTRICITY>.0001344</ECCENTRICITY><INCLINATION>45.0095</INCLINATION><RA_OF_ASC_NODE>351.8818</RA_OF_ASC_NODE><ARG_OF_PERICENTER>319.2455</ARG_OF_PERICENTER><MEAN_ANOMALY>40.8292</MEAN_ANOMALY></meanElements><tleParameters><EPHEMERIS_TYPE>0</EPHEMERIS_TYPE><CLASSIFICATION_TYPE>U</CLASSIFICATION_TYPE><NORAD_CAT_ID>25475</NORAD_CAT_ID><ELEMENT_SET_NO>999</ELEMENT_SET_NO><REV_AT_EPOCH>37286</REV_AT_EPOCH><BSTAR>.10954E-2</BSTAR><MEAN_MOTION_DOT>.3114E-4</MEAN_MOTION_DOT><MEAN_MOTION_DDOT>0</MEAN_MOTION_DDOT></tleParameters></data></segment></body></omm>
<omm id="CCSDS_OMM_VERS" version="2.0">
<header><CREATION_DATE/><ORIGINATOR/></header><body><segment><metadata><OBJECT_NAME>ORBCOMM FM22</OBJECT_NAME><OBJECT_ID>1998-053B</OBJECT_ID><CENTER_NAME>EARTH</CENTER_NAME><REF_FRAME>TEME</REF_FRAME><TIME_SYSTEM>UTC</TIME_SYSTEM><MEAN_ELEMENT_THEORY>SGP4</MEAN_ELEMENT_THEORY></metadata><data><meanElements><EPOCH>2024-12-29T23:02:02.392224</EPOCH><MEAN_MOTION>14.37501780</MEAN_MOTION><ECCENTRICITY>.000162</ECCENTRICITY><INCLINATION>45.0085</INCLINATION><RA_OF_ASC_NODE>346.6165</RA_OF_ASC_NODE><ARG_OF_PERICENTER>39.7294</ARG_OF_PERICENTER><MEAN_ANOMALY>320.3672</MEAN_ANOMALY></meanElements><tleParameters><EPHEMERIS_TYPE>0</EPHEMERIS_TYPE><CLASSIFICATION_TYPE>U</CLASSIFICATION_TYPE><NORAD_CAT_ID>25476</NORAD_CAT_ID><ELEMENT_SET_NO>999</ELEMENT_SET_NO><REV_AT_EPOCH>37291</REV_AT_EPOCH><BSTAR>.14024E-2</BSTAR><MEAN_MOTION_DOT>.4098E-4</MEAN_MOTION_DOT><MEAN_MOTION_DDOT>0</MEAN_MOTION_DDOT></tleParameters></data></segment></body></omm>
<omm id="CCSDS_OMM_VERS" version="2.0">
<header><CREATION_DATE/><ORIGINATOR/></header><body><segment><metadata><OBJECT_NAME>ORBCOMM FM23</OBJECT_NAME><OBJECT_ID>1998-053C</OBJECT_ID><CENTER_NAME>EARTH</CENTER_NAME><REF_FRAME>TEME</REF_FRAME><TIME_SYSTEM>UTC</TIME_SYSTEM><MEAN_ELEMENT_THEORY>SGP4</MEAN_ELEMENT_THEORY></metadata><data><meanElements><EPOCH>2024-12-29T23:14:19.229568</EPOCH><MEAN_MOTION>14.36773335</MEAN_MOTION><ECCENTRICITY>.0001139</ECCENTRICITY><INCLINATION>45.0091</INCLINATION><RA_OF_ASC_NODE>352.7970</RA_OF_ASC_NODE><ARG_OF_PERICENTER>5.9854</ARG_OF_PERICENTER><MEAN_ANOMALY>354.1008</MEAN_ANOMALY></meanElements><tleParameters><EPHEMERIS_TYPE>0</EPHEMERIS_TYPE><CLASSIFICATION_TYPE>U</CLASSIFICATION_TYPE><NORAD_CAT_ID>25477</NORAD_CAT_ID><ELEMENT_SET_NO>999</ELEMENT_SET_NO><REV_AT_EPOCH>37305</REV_AT_EPOCH><BSTAR>.13567E-2</BSTAR><MEAN_MOTION_DOT>.39E-4</MEAN_MOTION_DOT><MEAN_MOTION_DDOT>0</MEAN_MOTION_DDOT></tleParameters></data></segment></body></omm>

</ndm>
