ORBCOMM FM20            
1 25416U 98046D   24365.10138578  .00003024  00000+0  10681-2 0  9994
2 25416  44.9935 261.6463 0000727  39.0539 321.0361 14.36525351379984
ORBCOMM FM16            
1 25417U 98046E   24364.93656199  .00003768  00000+0  12815-2 0  9995
2 25417  44.9929 256.0649 0003530 152.7364 207.3670 14.37950351379887
ORBCOMM FM15            
1 25418U 98046F   24365.15083812  .00003886  00000+0  13286-2 0  9991
2 25418  44.9963 259.7109 0003052 155.4092 204.6901 14.37635870380081
ORBCOMM FM14            
1 25419U 98046G   24365.06871923  .00003636  00000+0  12388-2 0  9995
2 25419  44.9950 258.7841 0002166 136.7943 223.3076 14.37928232380080
ORBCOMM FM13            
1 25420U 98046H   24365.11566036  .00003423  00000+0  11940-2 0  9996
2 25420  44.9968 265.0068 0004080 137.6407 222.4757 14.36880477380044
ORBCOMM FM21            
1 25475U 98053A   24364.67182023  .00003114  00000+0  10954-2 0  9995
2 25475  45.0095 351.8818 0001344 319.2455  40.8292 14.36660250372867
ORBCOMM FM22            
1 25476U 98053B   24364.95974991  .00004098  00000+0  14024-2 0  9994
2 25476  45.0085 346.6165 0001620  39.7294 320.3672 14.37501780372913
ORBCOMM FM23            
1 25477U 98053C   24364.96827812  .00003900  00000+0  13567-2 0  9997
2 25477  45.0091 352.7970 0001139   5.9854 354.1008 14.36773335373055
